     2              NAVIGATION DATA                         RINEX VERSION / TYPE
CCRINEXN V1.6.0 UX  CDDIS               19-JAN-17 23:49     PGM / RUN BY / DATE 
IGS BROADCAST EPHEMERIS FILE                                COMMENT             
    0.7451D-08 -0.1490D-07 -0.5960D-07  0.1192D-06          ION ALPHA           
    0.8806D+05 -0.4915D+05 -0.1966D+06  0.3277D+06          ION BETA            
   -0.279396772385D-08-0.106581410364D-13   589824     1932 DELTA-UTC: A0,A1,T,W
    18                                                      LEAP SECONDS        
                                                            END OF HEADER       
13 17  1 19 19 59 44.0-0.658086501062D-04-0.181898940355D-11 0.000000000000D+00
    0.280000000000D+02 0.458750000000D+02 0.438018243898D-08 0.247729089306D+01
    0.231340527534D-05 0.407975341659D-02 0.908784568310D-05 0.515368796158D+04
    0.417584000000D+06 0.689178705216D-07 0.206646573849D+01-0.465661287308D-07
    0.969852660290D+00 0.208343750000D+03 0.184938133660D+01-0.786497089678D-08
    0.525021866260D-10 0.100000000000D+01 0.193200000000D+04 0.000000000000D+00
    0.200000000000D+01 0.000000000000D+00-0.111758708954D-07 0.280000000000D+02
    0.410310000000D+06 0.000000000000D+00 0.000000000000D+00 0.000000000000D+00
23 17  1 19 19 59 44.0-0.203124713153D-03-0.102318153950D-11 0.000000000000D+00
    0.280000000000D+02 0.543125000000D+02 0.486948836809D-08 0.297917383571D+01
    0.270642340183D-05 0.111734584207D-01 0.950135290623D-05 0.515381329346D+04
    0.417584000000D+06-0.260770320892D-07 0.194514642348D+01-0.130385160446D-06
    0.944519138213D+00 0.189656250000D+03-0.250604483611D+01-0.798676147440D-08
    0.105718690746D-09 0.100000000000D+01 0.193200000000D+04 0.000000000000D+00
    0.200000000000D+01 0.000000000000D+00-0.200234353542D-07 0.280000000000D+02
    0.410310000000D+06 0.400000000000D+01 0.000000000000D+00 0.000000000000D+00
24 17  1 19 19 59 44.0-0.292723998427D-04-0.568434188608D-12 0.000000000000D+00
    0.100000000000D+02 0.467187500000D+02 0.503556707443D-08 0.230702749005D+01
    0.239908695221D-05 0.540940836072D-02 0.567547976971D-05 0.515370744133D+04
    0.417584000000D+06-0.156462192535D-06 0.296938322721D+01-0.745058059692D-08
    0.947001272781D+00 0.262343750000D+03 0.435921240658D+00-0.833106117426D-08
   -0.285726182298D-10 0.100000000000D+01 0.193200000000D+04 0.000000000000D+00
    0.200000000000D+01 0.000000000000D+00 0.232830643654D-08 0.100000000000D+02
    0.000000000000D+00 0.000000000000D+00 0.000000000000D+00 0.000000000000D+00
25 17  1 19 19 59 44.0-0.320831313729D-03-0.670752342558D-11 0.000000000000D+00
    0.350000000000D+02-0.144375000000D+02 0.417803117463D-08 0.298945770508D+00
   -0.718981027603D-06 0.599973811768D-02 0.655837357044D-05 0.515364686012D+04
    0.417584000000D+06-0.223517417908D-07-0.223530444508D+01 0.745058059692D-07
    0.977853550908D+00 0.260000000000D+03 0.751163131519D+00-0.807569352791D-08
   -0.251439044874D-09 0.100000000000D+01 0.193200000000D+04 0.000000000000D+00
    0.200000000000D+01 0.000000000000D+00 0.558793544769D-08 0.350000000000D+02
    0.410400000000D+06 0.000000000000D+00 0.000000000000D+00 0.000000000000D+00
28 17  1 19 19 59 44.0 0.583331100643D-03 0.295585778076D-11 0.000000000000D+00
    0.190000000000D+02-0.215625000000D+02 0.394337854326D-08-0.122913029819D+01
   -0.899657607079D-06 0.200529684080D-01 0.772252678871D-05 0.515364156914D+04
    0.417584000000D+06-0.212341547012D-06-0.215803414934D+01 0.398606061935D-06
    0.989035082904D+00 0.248375000000D+03-0.158090508341D+01-0.805569269479D-08
   -0.288940606965D-09 0.100000000000D+01 0.193200000000D+04 0.000000000000D+00
    0.200000000000D+01 0.000000000000D+00-0.111758708954D-07 0.190000000000D+02
    0.410430000000D+06 0.400000000000D+01 0.000000000000D+00 0.000000000000D+00
 1 17  1 19 20  0  0.0 0.472255051136D-04 0.909494701773D-12 0.000000000000D+00
    0.540000000000D+02-0.232812500000D+02 0.454018911710D-08 0.205908815923D+01
   -0.118650496006D-05 0.614289473742D-02 0.600889325142D-05 0.515369236183D+04
    0.417600000000D+06-0.130385160446D-06-0.137155028715D+00-0.745058059692D-08
    0.966658074377D+00 0.265812500000D+03 0.549796883236D+00-0.814176770873D-08
    0.169649923743D-09 0.100000000000D+01 0.193200000000D+04 0.000000000000D+00
    0.200000000000D+01 0.000000000000D+00 0.512227416039D-08 0.540000000000D+02
    0.417600000000D+06 0.000000000000D+00 0.000000000000D+00 0.000000000000D+00
 2 17  1 19 20  0  0.0 0.490763690323D-03-0.648014975013D-11 0.000000000000D+00
    0.800000000000D+02-0.229062500000D+02 0.479555689705D-08 0.248837456462D+01
   -0.130571424961D-05 0.164968598401D-01 0.611320137978D-05 0.515371658516D+04
    0.417600000000D+06 0.819563865662D-07-0.187776957938D+00-0.240281224251D-06
    0.945519741995D+00 0.250250000000D+03-0.203682592248D+01-0.802426281418D-08
    0.220009164265D-09 0.100000000000D+01 0.193200000000D+04 0.000000000000D+00
    0.280000000000D+01 0.000000000000D+00-0.204890966415D-07 0.800000000000D+02
    0.410400000000D+06 0.000000000000D+00 0.000000000000D+00 0.000000000000D+00
 3 17  1 19 20  0  0.0-0.106221064925D-03-0.795807864051D-12 0.000000000000D+00
    0.114000000000D+03-0.309062500000D+02 0.461412076808D-08 0.100104645372D+01
   -0.185146927834D-05 0.482660718262D-03 0.891461968422D-05 0.515381802559D+04
    0.417600000000D+06 0.614672899246D-07 0.904546241730D+00 0.242143869400D-07
    0.959565080960D+00 0.206625000000D+03 0.565844222666D+00-0.804533512050D-08
   -0.106790162525D-09 0.100000000000D+01 0.193200000000D+04 0.000000000000D+00
    0.400000000000D+01 0.000000000000D+00 0.186264514923D-08 0.114000000000D+03
    0.410400000000D+06 0.000000000000D+00 0.000000000000D+00 0.000000000000D+00
 5 17  1 19 20  0  0.0-0.653392635286D-04 0.216004991671D-11 0.000000000000D+00
    0.190000000000D+02-0.367500000000D+02 0.490913305652D-08-0.128542482539D+01
   -0.191293656826D-05 0.491612881888D-02 0.814720988274D-05 0.515367006683D+04
    0.417600000000D+06 0.102445483208D-06 0.889442828247D+00-0.763684511185D-07
    0.946569574434D+00 0.209625000000D+03 0.562885206063D+00-0.820784188956D-08
   -0.575023952056D-10 0.100000000000D+01 0.193200000000D+04 0.000000000000D+00
    0.200000000000D+01 0.000000000000D+00-0.107102096081D-07 0.190000000000D+02
    0.410400000000D+06 0.000000000000D+00 0.000000000000D+00 0.000000000000D+00
 6 17  1 19 20  0  0.0 0.301419291645D-03 0.500222085975D-11 0.000000000000D+00
    0.630000000000D+02-0.248437500000D+02 0.446590009417D-08 0.242641322235D+01
   -0.121816992760D-05 0.549243646674D-03 0.637583434582D-05 0.515360128021D+04
    0.417600000000D+06-0.745058059692D-08-0.145539739297D+00-0.931322574616D-08
    0.966451049525D+00 0.258687500000D+03-0.142085918595D+01-0.807319366913D-08
    0.205008537924D-09 0.100000000000D+01 0.193200000000D+04 0.000000000000D+00
    0.200000000000D+01 0.000000000000D+00 0.419095158577D-08 0.630000000000D+02
    0.410340000000D+06 0.400000000000D+01 0.000000000000D+00 0.000000000000D+00
 8 17  1 19 20  0  0.0-0.465880148113D-04-0.136424205266D-11 0.000000000000D+00
    0.900000000000D+02 0.356250000000D+01 0.426982049717D-08-0.138192436443D+01
    0.195577740669D-06 0.240987050347D-02 0.849924981594D-05 0.515357754135D+04
    0.417600000000D+06-0.558793544769D-08-0.119938411194D+01 0.912696123123D-07
    0.965447291692D+00 0.220937500000D+03-0.918257235157D+00-0.802604827044D-08
    0.240367142856D-09 0.100000000000D+01 0.193200000000D+04 0.000000000000D+00
    0.200000000000D+01 0.000000000000D+00 0.465661287308D-08 0.900000000000D+02
    0.000000000000D+00 0.000000000000D+00 0.000000000000D+00 0.000000000000D+00
 9 17  1 19 20  0  0.0 0.286789145321D-03 0.750333128963D-11 0.000000000000D+00
    0.270000000000D+02 0.503437500000D+02 0.480448569817D-08-0.186570537236D+01
    0.265985727310D-05 0.898016151041D-03 0.964663922787D-05 0.515370724678D+04
    0.417600000000D+06 0.149011611938D-07 0.194213806850D+01 0.111758708954D-07
    0.953626956036D+00 0.191593750000D+03 0.172569314614D+01-0.810498068660D-08
    0.111076058074D-09 0.100000000000D+01 0.193200000000D+04 0.000000000000D+00
    0.200000000000D+01 0.000000000000D+00 0.139698386192D-08 0.270000000000D+02
    0.410340000000D+06 0.400000000000D+01 0.000000000000D+00 0.000000000000D+00
10 17  1 19 20  0  0.0-0.112380832434D-03 0.227373675443D-11 0.000000000000D+00
    0.540000000000D+02-0.305625000000D+02 0.459554838628D-08 0.256249850978D-02
   -0.159628689289D-05 0.212142511737D-02 0.838935375214D-05 0.515367646599D+04
    0.417600000000D+06-0.111758708954D-07 0.900744249305D+00 0.502914190292D-07
    0.959760184493D+00 0.217156250000D+03-0.292318318147D+01-0.805176370022D-08
   -0.760745980100D-10 0.100000000000D+01 0.193200000000D+04 0.000000000000D+00
    0.200000000000D+01 0.000000000000D+00 0.232830643654D-08 0.540000000000D+02
    0.000000000000D+00 0.000000000000D+00 0.000000000000D+00 0.000000000000D+00
11 17  1 19 20  0  0.0-0.667499843985D-03-0.113686837722D-12 0.000000000000D+00
    0.470000000000D+02-0.787500000000D+01 0.603310844604D-08 0.147394426984D+01
   -0.683590769768D-06 0.166398140136D-01 0.566244125366D-05 0.515369318771D+04
    0.417600000000D+06 0.558793544769D-07-0.530667040824D+00-0.450760126114D-06
    0.899559310530D+00 0.237875000000D+03 0.161381151357D+01-0.892858619717D-08
    0.308941440080D-09 0.100000000000D+01 0.193200000000D+04 0.000000000000D+00
    0.200000000000D+01 0.000000000000D+00-0.121071934700D-07 0.470000000000D+02
    0.417600000000D+06 0.000000000000D+00 0.000000000000D+00 0.000000000000D+00
